CIC_OEM_VERS = 2.0
CREATION_DATE = 2025-06-16T07:47:13.550275
ORIGINATOR = ISAE-SUPAERO


META_START
OBJECT_NAME = Sat
OBJECT_ID = Sat
CENTER_NAME = Earth
REF_FRAME = EME2000
TIME_SYSTEM = UTC
START_TIME = 2025-06-16T00:00:00.000
USEABLE_START_TIME = 2025-06-16T00:00:00.000
USEABLE_STOP_TIME = 2025-06-16T23:55:00.000
STOP_TIME = 2025-06-16T23:55:00.000
INTERPOLATION = lagrange
INTERPOLATION_DEGREE = 5
META_STOP



60842 0.0 -1281.5293000000001 -6694.7503 -715.0257700000001 -0.84685522 0.96982605 -7.5233569
60842 420.0 -1486.8261000000002 -5583.4795 -3683.6797 -0.11301092 4.2245828 -6.3541489
60842 840.0 -1373.3865 -3274.9246000000003 -5860.987400000001 0.6439553499999999 6.5684138999999995 -3.8203545
60842 1260.0 -964.15974 -259.36597 -6774.8195000000005 1.2635232 7.508818199999999 -0.46657497000000003
60842 1680.0 -348.64746 2809.7018 -6232.6313 1.6121016 6.8334337 2.9945625000000002
60842 2100.0 341.24496000000005 5274.8125 -4351.218400000001 1.6138138 4.6901197 5.8066214
60842 2520.0 957.89588 6606.580599999999 -1531.7652 1.2687958000000001 1.5348301 7.373266
60842 2940.0 1368.5763000000002 6517.6337 1618.0676 0.65121834 -1.9494952 7.3505225
60842 3360.0 1485.5347 5029.609 4419.9061 -0.10373441 -5.0045042 5.7493206
60842 3780.0 1285.0415 2466.2268 6275.2798 -0.83288671 -6.977756 2.9272291
60842 4200.0 811.2647900000001 -621.85451 6792.8127 -1.382109 -7.461340900000001 -0.50551439
60842 4620.0 165.48066 -3578.3372999999997 5866.6186 -1.6375587 -6.3632195000000005 -3.8249496
60842 5040.0 -515.35906 -5776.506 3693.9836 -1.545934 -3.9143127 -6.3344191
60842 5460.0 -1086.74 -6748.1916 735.1539200000001 -1.1254146 -0.62741455 -7.4996713
60842 5880.0 -1426.7928000000002 -6283.7855 -2380.2197 -0.46435059 2.7996727999999997 -7.0655894
60842 6300.0 -1462.7466000000002 -4480.1949 -4986.8533 0.29633107999999997 5.633148500000001 -5.1206612
60842 6720.0 -1186.7446000000002 -1721.2011000000002 -6527.0265 0.99418322 7.266369200000001 -2.0793427
60842 7140.0 -657.45252 1404.9486000000002 -6670.124400000001 1.4805915 7.3494734 1.4114264
60842 7560.0 12.572424999999999 4230.599099999999 -5381.9372 1.6512673 5.8590248 4.6087015000000005
60842 7980.0 679.70061 6148.3782 -2937.0735 1.4674800000000001 3.1050841 6.8218661
60842 8400.0 1200.6912 6744.2574 141.08145000000002 0.9680392600000001 -0.31924007 7.5667378
60842 8820.0 1463.7122 5890.9213 3189.1246 0.26195374 -3.6679401 6.682078300000001
60842 9240.0 1413.3895 3776.2712 5552.9277999999995 -0.49682195 -6.217548600000001 4.3704383
60842 9660.0 1061.8666 856.49454 6730.8023 -1.1462693 -7.4334240000000005 1.1391726000000002
60842 10080.0 485.03785 -2245.2835 6477.0784 -1.5508526999999999 -7.070516700000001 -2.3245916
60842 10500.0 -194.51898000000003 -4871.5042 4847.7142 -1.626749 -5.2092085 -5.2945564
60842 10920.0 -832.74917 -6464.4378 2187.6267000000003 -1.3573308 -2.2375548 -7.1435896
60842 11340.0 -1293.823 -6682.6981 -938.54382 -0.7983324900000001 1.2180754999999999 -7.4726071
60842 11760.0 -1479.1970000000001 -5476.9905 -3864.0578 -0.068252676 4.4195525 -6.204409200000001
60842 12180.0 -1349.0439 -3103.0047999999997 -5962.9879 0.6768514 6.6798676 -3.608007
60842 12600.0 -930.94938 -66.81451799999999 -6785.6291 1.2779941 7.5153678 -0.23715131
60842 13020.0 -313.9595 2983.2663 -6154.2353 1.6068307 6.7445917 3.1906640000000004
60842 13440.0 369.95234999999997 5393.899 -4202.9625 1.5915830000000002 4.5239452 5.9409628
60842 13860.0 974.541 6645.9438 -1345.3022 1.2346505 1.3283388 7.4176646
60842 14280.0 1369.6413 6469.4881 1802.3937 0.61252645 -2.1521744 7.2962636000000005
60842 14700.0 1470.8297 4904.7439 4562.481400000001 -0.13874359000000003 -5.160621600000001 5.608792800000001
60842 15120.0 1257.6798000000001 2291.3392000000003 6345.63 -0.85696722 -7.0552453 2.7302863000000004
60842 15540.0 777.00849 -809.62166 6775.617700000001 -1.3902741 -7.4440147 -0.71811277
60842 15960.0 131.52505 -3739.0504 5764.6471 -1.6279423 -6.2538341 -4.0087491
60842 16380.0 -541.79412 -5875.5082 3527.9948 -1.5203621 -3.7350317 -6.449739800000001
60842 16800.0 -1099.9764 -6763.6808 539.96538 -1.0892655 -0.41629205 -7.520619300000001
60842 17220.0 -1423.9569 -6211.953 -2563.0624 -0.42537874 2.9965497 -6.9868345000000005
60842 17640.0 -1444.4593 -4336.4107 -5118.339900000001 0.32955019 5.7725344 -4.9594964
60842 18060.0 -1157.029 -1536.5005 -6579.519200000001 1.0143874 7.3183521 -1.8713738000000002
60842 18480.0 -622.78913 1590.9648 -6633.2728 1.4835396 7.3037193 1.6212025
60842 18900.0 44.663746 4378.2952000000005 -5264.7210000000005 1.6364556000000001 5.7255331 4.775845
60842 19320.0 702.36757 6226.5028 -2765.2277000000004 1.4382854999999999 2.9131933 6.9106853
60842 19740.0 1209.1315 6736.5807 330.25725 0.9307053 -0.52854241 7.5590808
60842 20160.0 1456.1399 5799.4627 3354.867 0.22441682000000002 -3.8505121 6.5802301
60842 20580.0 1391.4497 3620.719 5659.71 -0.52663704 -6.3352497 4.1960357
60842 21000.0 1030.1445 669.70282 6755.3117 -1.1622404 -7.4618541 0.92869999
60842 21420.0 450.15628000000004 -2423.7604 6413.2304 -1.5496337000000002 -7.0030084 -2.5273185
60842 21840.0 -225.23385000000002 -5003.4441 4708.0426 -1.6084593 -5.058959799999999 -5.4462216
60842 22260.0 -852.78484 -6521.1167000000005 2001.0942 -1.3256465000000002 -2.0359102 -7.210750600000001
60842 22680.0 -1298.8534 -6651.4124 -1132.4055 -0.75989735 1.4273745 -7.4396375
60842 23100.0 -1468.1376 -5364.3676 -4023.884 -0.031521738 4.590298600000001 -6.078396
60842 23520.0 -1324.3672 -2933.5122 -6054.97 0.7037509000000001 6.775019400000001 -3.4170637999999998
60842 23940.0 -898.1057900000001 122.97442 -6790.9648 1.2892966 7.515262 -0.023068528
60842 24360.0 -280.09765999999996 3152.7037 -6072.655900000001 1.6003445 6.6505462 3.3820189999999997
60842 24780.0 397.38772 5507.6679 -4054.7549 1.5685587 4.3548916 6.0685539
60842 25200.0 989.77909 6679.5955 -1161.7558000000001 1.2006739 1.1226379 7.455636
60842 25620.0 1369.5537 6416.5253 1981.4958000000001 0.5748194999999999 -2.3517216 7.2376941
60842 26040.0 1455.4719 4776.465200000001 4698.61 -0.17254549 -5.313390900000001 5.4658842000000005
60842 26460.0 1230.0623 2114.0782999999997 6408.612400000001 -0.88016523 -7.1299086 2.5316999
60842 26880.0 742.76639 -998.45928 6750.400000000001 -1.398031 -7.423122500000001 -0.9321204900000001
60842 27300.0 97.661634 -3899.0407000000005 5654.269200000001 -1.6183436 -6.1394660000000005 -4.1927196
60842 27720.0 -568.1760899999999 -5971.4544000000005 3354.0355 -1.4948785 -3.5498724000000004 -6.5625611
60842 28140.0 -1113.1493 -6773.8162 338.6344 -1.0530329999999999 -0.20071250000000002 -7.5354734
60842 28560.0 -1421.0532 -6133.6758 -2748.9285 -0.38656108 3.1938019 -6.8997713
60842 28980.0 -1426.2783000000002 -4187.0701 -5249.423400000001 0.36206196999999996 5.9073322 -4.7909162
60842 29400.0 -1127.832 -1348.9916 -6629.231900000001 1.0333767 7.3622806 -1.6599199000000002
60842 29820.0 -589.1891800000001 1776.2435 -6593.267900000001 1.4851925000000001 7.2496134 1.8293115
60842 30240.0 75.140172 4522.3845 -5146.8575 1.6206864 5.5861101 4.936495600000001
60842 30660.0 723.0989000000001 6300.071400000001 -2597.4056 1.4090068000000002 2.7203323 6.9905274
60842 31080.0 1215.9067 6724.9777 512.07162 0.89472002 -0.73443736 7.5450775000000005
60842 31500.0 1447.6455 5705.774 3511.4009 0.18887822 -4.029006600000001 6.4760053
60842 31920.0 1369.4937 3465.3427 5756.635200000001 -0.55475788 -6.449741100000001 4.0220504
60842 32340.0 998.8756400000001 483.98890000000006 6770.0977 -1.1776756000000002 -7.4889327 0.71825294
60842 32760.0 415.71895 -2600.5839 6339.344700000001 -1.5489190000000002 -6.9336469 -2.7315332
60842 33180.0 -255.80317000000002 -5132.3982000000005 4557.5733 -1.590913 -4.904022 -5.5994934999999995
60842 33600.0 -872.89539 -6572.2728 1803.6856 -1.2942265 -1.8272355 -7.276175100000001
60842 34020.0 -1303.9708 -6611.6319 -1335.4233000000002 -0.72128909 1.6429522 -7.3998486
60842 34440.0 -1457.0848 -5241.5066 -4189.1475 0.0052742726 4.762255000000001 -5.9420018
60842 34860.0 -1299.7871 -2754.7054 -6148.005099999999 0.73009687 6.864587800000001 -3.2165044
60842 35280.0 -865.74461 318.61649 -6794.2991 1.2993554999999999 7.5048736 0.19536903000000003
60842 35700.0 -247.26579999999998 3323.817 -5988.91 1.5924256 6.5453513 3.5714195
60842 36120.0 424.02040000000005 5624.2869 -3907.4024 1.5440258 4.180516300000001 6.1817972
60842 36540.0 1004.2881 6720.4094000000005 -988.60437 1.1666068 0.9244513500000001 7.471477
60842 36960.0 1369.4829 6376.2041 2143.7665 0.54117011 -2.5274189000000002 7.1675184000000005
60842 37380.0 1442.4837 4672.2395 4816.5881 -0.19959306000000002 -5.4381710000000005 5.3289295
60842 37800.0 1208.0638999999999 1972.3419 6460.2711 -0.8962330500000001 -7.1847851 2.3566875
60842 38220.0 716.6221700000001 -1147.2803000000001 6725.8055 -1.4015706 -7.4013589 -1.1152191
60842 38640.0 72.724522 -4022.6444 5556.425 -1.6090639000000002 -6.0420241 -4.3531025
60842 39060.0 -586.6208 -6040.0842999999995 3199.327 -1.4735133 -3.3887116 -6.667796900000001
60842 39480.0 -1120.4624 -6765.900900000001 156.70191 -1.0222627 -0.0037226676 -7.5571858
60842 39900.0 -1414.4084 -6042.9452 -2919.7113 -0.35192720000000005 3.3836749 -6.824372
60842 40320.0 -1405.7571 -4027.1405 -5369.6903 0.39251995 6.0418534 -4.6296927
60842 40740.0 -1096.8207 -1150.7160000000001 -6669.9208 1.0515169000000002 7.405617599999999 -1.450579
60842 41160.0 -554.14221 1971.0203000000001 -6544.894 1.485737 7.1899843 2.0349192
60842 41580.0 106.59045 4672.6753 -5021.456700000001 1.6035059 5.4410824 5.0880843
60842 42000.0 744.54459 6377.1705999999995 -2423.7074 1.3790009 2.5269518 7.0568957
60842 42420.0 1223.3497 6718.721500000001 693.29822 0.8594999000000001 -0.93021094 7.5149953
60842 42840.0 1440.0093000000002 5620.331400000001 3661.6026 0.15684902 -4.1882705 6.3662513
60842 43260.0 1347.3281000000002 3314.4462000000003 5841.3685000000005 -0.58000755 -6.557473600000001 3.8558841000000004
60842 43680.0 966.50296 301.7991 6765.8995 -1.1946697 -7.525189500000001 0.50629086
